{
    "CCSDS_OMM_VERS": "3.0",
    "COMMENT": "GENERATED VIA SPACE-TRACK.ORG API",
    "CREATION_DATE": "2025-05-23T06:46:19",
    "ORIGINATOR": "18 SPCS",
    "OBJECT_NAME": "BEIDOU 3M15",
    "OBJECT_ID": "2018-078A",
    "CENTER_NAME": "EARTH",
    "REF_FRAME": "TEME",
    "TIME_SYSTEM": "UTC",
    "MEAN_ELEMENT_THEORY": "SGP4",
    "EPOCH": "2025-05-22T15:47:58.724448",
    "MEAN_MOTION": "1.86232205",
    "ECCENTRICITY": "0.00074970",
    "INCLINATION": "54.4416",
    "RA_OF_ASC_NODE": "313.6433",
    "ARG_OF_PERICENTER": "31.5665",
    "MEAN_ANOMALY": "328.4727",
    "EPHEMERIS_TYPE": "0",
    "CLASSIFICATION_TYPE": "U",
    "NORAD_CAT_ID": "43647",
    "ELEMENT_SET_NO": "999",
    "REV_AT_EPOCH": "4489",
    "BSTAR": "0.00000000000000",
    "MEAN_MOTION_DOT": "-0.00000056",
    "MEAN_MOTION_DDOT": "0.0000000000000",
    "SEMIMAJOR_AXIS": "27906.068",
    "PERIOD": "773.228",
    "APOAPSIS": "21548.854",
    "PERIAPSIS": "21507.012",
    "OBJECT_TYPE": "PAYLOAD",
    "RCS_SIZE": "LARGE",
    "COUNTRY_CODE": "PRC",
    "LAUNCH_DATE": "2018-10-15",
    "SITE": "XSC",
    "DECAY_DATE": null,
    "FILE": "4736705",
    "GP_ID": "288168868",
    "TLE_LINE0": "0 BEIDOU 3M15",
    "TLE_LINE1": "1 43647U 18078A   25142.65831857 -.00000056  00000-0  00000+0 0  9996",
    "TLE_LINE2": "2 43647  54.4416 313.6433 0007497  31.5665 328.4727  1.86232205 44893"
}